HST                     
1 20580U 90037B   24284.38060711  .00018210  00000+0  80920-3 0  9993
2 20580  28.4692 292.1643 0002822 210.3405 149.7025 15.20113474694829
